{
 "type": "FeatureCollection",
 "features": [
  {
   "type": "Feature",
   "geometry": {
    "type": "Polygon",
    "coordinates": [
     [
      [
       -118.24950482444267,
       34.04975269295281
      ],
      [
       -118.24950482156724,
       34.05024730504267
      ],
      [
       -118.25049517843276,
       34.05024730504267
      ],
      [
       -118.25049517555733,
       34.04975269295281
      ],
      [
       -118.24950482444267,
       34.04975269295281
      ]
     ]
    ]
   },
   "properties": {
    "role": "footprint",
    "id": "sample-warehouse",
    "occupancy": "commercial",
    "obstructions_mapped": true
   }
  },
  {
   "type": "Feature",
   "geometry": {
    "type": "Polygon",
    "coordinates": [
     [
      [
       -118.25020036696853,
       34.05003155317424
      ],
      [
       -118.25020036703216,
       34.05005859889199
      ],
      [
       -118.25023285898332,
       34.050058598834745
      ],
      [
       -118.25023285890937,
       34.050031553116995
      ],
      [
       -118.25020036696853,
       34.05003155317424
      ]
     ]
    ]
   },
   "properties": {
    "role": "obstruction",
    "building_id": "sample-warehouse",
    "kind": "hvac",
    "height_m": 1.5
   }
  },
  {
   "type": "Feature",
   "geometry": {
    "type": "Polygon",
    "coordinates": [
     [
      [
       -118.24982129457125,
       34.04991435509601
      ],
      [
       -118.2498212945145,
       34.04994140081428
      ],
      [
       -118.24985378642096,
       34.049941400857215
      ],
      [
       -118.24985378646738,
       34.049914355138945
      ],
      [
       -118.24982129457125,
       34.04991435509601
      ]
     ]
    ]
   },
   "properties": {
    "role": "obstruction",
    "building_id": "sample-warehouse",
    "kind": "hvac",
    "height_m": 1.5
   }
  },
  {
   "type": "Feature",
   "geometry": {
    "type": "Polygon",
    "coordinates": [
     [
      [
       -118.24999133547263,
       34.050128016396656
      ],
      [
       -118.24999133547115,
       34.05014244077924
      ],
      [
       -118.25000866452883,
       34.05014244077924
      ],
      [
       -118.25000866452737,
       34.050128016396656
      ],
      [
       -118.24999133547263,
       34.050128016396656
      ]
     ]
    ]
   },
   "properties": {
    "role": "obstruction",
    "building_id": "sample-warehouse",
    "kind": "hatch",
    "height_m": 0.5
   }
  },
  {
   "type": "Feature",
   "geometry": {
    "type": "Polygon",
    "coordinates": [
     [
      [
       -118.24978338455051,
       34.051018721767385
      ],
      [
       -118.24978338422953,
       34.05114493509556
      ],
      [
       -118.25021661577046,
       34.05114493509556
      ],
      [
       -118.25021661544947,
       34.051018721767385
      ],
      [
       -118.24978338455051,
       34.051018721767385
      ]
     ]
    ]
   },
   "properties": {
    "role": "footprint",
    "id": "sample-multifamily",
    "occupancy": "R-2"
   }
  },
  {
   "type": "Feature",
   "geometry": {
    "type": "Polygon",
    "coordinates": [
     [
      [
       -118.24978338455051,
       34.051018721767385
      ],
      [
       -118.24978338439004,
       34.0510818284318
      ],
      [
       -118.25021661560996,
       34.0510818284318
      ],
      [
       -118.25021661544947,
       34.051018721767385
      ],
      [
       -118.24978338455051,
       34.051018721767385
      ]
     ]
    ]
   },
   "properties": {
    "role": "roof_plane",
    "building_id": "sample-multifamily",
    "pitch_deg": 22.6,
    "azimuth_deg": 180
   }
  },
  {
   "type": "Feature",
   "geometry": {
    "type": "Polygon",
    "coordinates": [
     [
      [
       -118.24978338439004,
       34.0510818284318
      ],
      [
       -118.24978338422953,
       34.05114493509556
      ],
      [
       -118.25021661577046,
       34.05114493509556
      ],
      [
       -118.25021661560996,
       34.0510818284318
      ],
      [
       -118.24978338439004,
       34.0510818284318
      ]
     ]
    ]
   },
   "properties": {
    "role": "roof_plane",
    "building_id": "sample-multifamily",
    "pitch_deg": 22.6,
    "azimuth_deg": 0
   }
  }
 ]
}